QIANFAN-60              
1 62790U 25016F   25351.29793183  .00000034  00000+0  34379-4 0  9992
2 62790  88.9762 102.6049 0014532 335.0048  25.0398 13.50984624 47848
QIANFAN-61              
1 62791U 25016G   25351.33073016  .00000128  00000+0  18038-3 0  9991
2 62791  88.9829 102.7676 0013505 334.5428  25.5056 13.50981579 47869
QIANFAN-62              
1 62792U 25016H   25351.33485530  .00000147  00000+0  20976-3 0  9995
2 62792  88.9775 102.6331 0014885 334.4400  25.6014 13.50978138 47859
QIANFAN-63              
1 62793U 25016J   25351.28548237  .00000135  00000+0  19036-3 0  9996
2 62793  88.9782 102.5901 0015062 340.3200  19.7368 13.50984830 47887
QIANFAN-64              
1 62794U 25016K   25351.32660481  .00000130  00000+0  18312-3 0  9999
2 62794  88.9769 102.5593 0012849 333.3136  26.7352 13.50979897 47888
QIANFAN-65              
1 62795U 25016L   25351.32249231  .00000132  00000+0  18534-3 0  9994
2 62795  88.9765 102.5856 0012716 335.3399  24.7143 13.50985595 47869
QIANFAN-66              
1 62796U 25016M   25351.27723331  .00000143  00000+0  20316-3 0  9990
2 62796  88.9785 102.5613 0013729 330.1683  29.8684 13.50978372 47903
QIANFAN-67              
1 62797U 25016N   25351.28147202  .00000136  00000+0  19164-3 0  9990
2 62797  88.9775 102.5860 0013850 337.6674  22.3873 13.50982535 47874
QIANFAN-68              
1 62798U 25016P   25351.34722299  .00000148  00000+0  21021-3 0  9991
2 62798  88.9778 102.6246 0013854 335.5171  24.5321 13.50984922 47863
QIANFAN-69              
1 62799U 25016Q   25351.28964249  .00000129  00000+0  18121-3 0  9994
2 62799  88.9757 102.4989 0014647 336.6806  23.3679 13.50987717 47892
QIANFAN-70              
1 62800U 25016R   25351.30609801  .00000137  00000+0  19314-3 0  9994
2 62800  88.9778 102.6367 0014046 326.2665  33.7591 13.50978597 47851
QIANFAN-71              
1 62801U 25016S   25351.30191257  .00000131  00000+0  18407-3 0  9992
2 62801  88.9772 102.6163 0014647 340.4480  19.6107 13.50985647 47850
QIANFAN-72              
1 62802U 25016T   25351.31838286  .00000134  00000+0  18924-3 0  9991
2 62802  88.9762 102.6276 0018076 347.0921  12.9765 13.50985694 47845
QIANFAN-73              
1 63159U 25046A   25351.27143936  .00000108  00000+0  14874-3 0  9997
2 63159  88.9764 319.5534 0016722 107.5753 252.7226 13.50978193 48020
QIANFAN-74              
1 63160U 25046B   25351.32888186  .00000108  00000+0  14928-3 0  9998
2 63160  88.9765 319.4364 0002032  76.8321 283.3057 13.50976012 48098
QIANFAN-75              
1 63161U 25046C   25351.31617932  .00000150  00000+0  21285-3 0  9998
2 63161  88.9766 319.6711 0017792 110.2996 250.0070 13.50979990 47967
QIANFAN-76              
1 63162U 25046D   25351.31282386  .00000172  00000+0  24677-3 0  9992
2 63162  88.9764 319.6521 0015330 110.3022 249.9778 13.50977861 47970
QIANFAN-77              
1 63163U 25046E   25351.27280766  .00000334  00000+0  23355-3 0  9990
2 63163  88.9766 317.6260 0016964  68.5918 291.7067 13.96091561 49087
QIANFAN-78              
1 63164U 25046F   25351.27964181  .00000116  00000+0  16002-3 0  9990
2 63164  88.9764 319.5194 0016672 112.7352 247.5564 13.50978449 48048
QIANFAN-79              
1 63165U 25046G   25351.30829792  .00000127  00000+0  17823-3 0  9997
2 63165  88.9768 319.6242 0016389 110.9993 249.2913 13.50980198 47998
QIANFAN-80              
1 63166U 25046H   25351.32482301  .00000137  00000+0  19342-3 0  9990
2 63166  88.9765 319.3292 0015287 114.5166 245.7581 13.50978015 48152
QIANFAN-81              
1 63167U 25046J   25351.30313196  .00000139  00000+0  19577-3 0  9996
2 63167  88.9765 319.3994 0016498 104.4922 255.8061 13.51003831 48101
QIANFAN-82              
1 63168U 25046K   25351.33727267  .00000121  00000+0  16854-3 0  9994
2 63168  88.9765 319.4398 0014515 110.9300 249.3407 13.50977067 48091
QIANFAN-83              
1 63169U 25046L   25351.32731276  .00000146  00000+0  17365-3 0  9994
2 63169  88.9766 319.2082 0016062  98.0784 262.2197 13.61975944 48221
QIANFAN-84              
1 63170U 25046M   25351.29097622  .00000097  00000+0  13127-3 0  9999
2 63170  88.9765 319.5772 0017538 108.6622 251.6435 13.50987782 48014
QIANFAN-85              
1 63171U 25046N   25351.28776917  .00000150  00000+0  21350-3 0  9997
2 63171  88.9765 319.4493 0014887 110.1023 250.1732 13.50977820 48084
QIANFAN-86              
1 63172U 25046P   25351.29609712  .00000121  00000+0  16895-3 0  9993
2 63172  88.9767 319.3107 0012694 113.1195 247.1295 13.50977536 48168
QIANFAN-87              
1 63173U 25046Q   25351.34149816  .00000115  00000+0  15879-3 0  9998
2 63173  88.9763 319.4175 0013429 109.1844 251.0762 13.50975333 48104
QIANFAN-88              
1 63174U 25046R   25351.28374181  .00000133  00000+0  18664-3 0  9992
2 63174  88.9766 319.3781 0013684 116.5036 243.7520 13.50981880 48124
QIANFAN-89              
1 63175U 25046S   25351.32062925  .00000151  00000+0  21479-3 0  9996
2 63175  88.9766 319.5633 0018204 109.0013 251.3112 13.50977715 48021
QIANFAN-90              
1 63176U 25046T   25351.27530175  .00000114  00000+0  15822-3 0  9992
2 63176  88.9765 319.5404 0015169 106.9718 253.3097 13.50978152 48033
QIANFAN-91              
1 66033U 25233A   25351.02433182 -.01969691  00000+0 -23827+1 0  9996
2 66033  88.9946  61.7041 0018606  41.3385 318.9181 13.70288070  8564
QIANFAN-92              
1 66034U 25233B   25350.71693440 -.01980895  00000+0 -23000+1 0  9999
2 66034  88.9947  61.7328 0015312  27.5532 332.6440 13.72831438  8526
QIANFAN-93              
1 66035U 25233C   25351.03040313 -.01966621  00000+0 -23481+1 0  9995
2 66035  88.9940  61.7065 0016593  36.9018 323.3283 13.71095337  8568
QIANFAN-94              
1 66036U 25233D   25351.05642753 -.01865668  00000+0 -21020+1 0  9990
2 66036  88.9951  61.6918 0015302  15.4015 344.7612 13.75089423  8570
QIANFAN-95              
1 66037U 25233E   25351.14058818 -.01790578  00000+0 -11277+1 0  9994
2 66037  88.9952  61.5566 0018224  29.9499 330.2723 14.08496418  8657
QIANFAN-96              
1 66038U 25233F   25351.27742760  .00000043  00000+0  31470-4 0  9994
2 66038  88.9957  61.6872 0016911  34.8763 325.3506 13.74608626  8599
QIANFAN-97              
1 66039U 25233G   25350.65133513  .00000044  00000+0  31055-4 0  9996
2 66039  88.9896  61.7457 0012227  40.8474 319.3606 13.76850429  8512
QIANFAN-98              
1 66040U 25233H   25351.30801941  .00000053  00000+0  31214-4 0  9995
2 66040  88.9955  61.5998 0015748  32.2972 327.9164 13.92094394  8644
QIANFAN-99              
1 66041U 25233J   25350.58422529 -.02035816  00000+0 -23836+1 0  9992
2 66041  88.9954  61.7507 0014518  26.1889 334.0005 13.72440294  8505
QIANFAN-100             
1 66042U 25233K   25350.99065248 -.02007973  00000+0 -20039+1 0  9994
2 66042  88.9950  61.6453 0021254  44.6371 315.6504 13.81919792  8599
QIANFAN-101             
1 66043U 25233L   25351.29533109  .00000278  00000+0  10876-3 0  9993
2 66043  88.9959  61.5057 0015538  28.7019 331.5027 14.26678792  8698
QIANFAN-102             
1 66044U 25233M   25351.09908466 -.01972254  00000+0 -21605+1 0  9998
2 66044  88.9950  61.6799 0012521  25.0518 335.1253 13.76345155  8584
QIANFAN-103             
1 66045U 25233N   25351.25311633  .00000043  00000+0  30991-4 0  9998
2 66045  88.9956  61.6838 0015961  32.9898 327.2260 13.76133884  8599
QIANFAN-104             
1 66046U 25233P   25351.25653423  .00000042  00000+0  28437-4 0  9996
2 66046  88.9957  61.6669 0015059  38.5498 321.6741 13.78654148  8606
QIANFAN-105             
1 66047U 25233Q   25351.07504709  .00000066  00000+0  38373-4 0  9995
2 66047  88.9958  61.6585 0016194  33.3100 326.9092 13.96079013  8596
QIANFAN-106             
1 66048U 25233R   25351.06045311 -.02016961  00000+0 -22470+1 0  9996
2 66048  88.9948  61.6922 0012144  43.2373 316.9743 13.75425619  8578
QIANFAN-107             
1 66049U 25233S   25351.05712361 -.01941197  00000+0 -22907+1 0  9994
2 66049  88.9952  61.6922 0014223  36.7277 323.4858 13.71771613  8578
QIANFAN-108             
1 66050U 25233T   25351.13009117 -.02023650  00000+0 -23177+1 0  9999
2 66050  88.9950  61.6833 0011324  40.0033 320.1963 13.73769521  8585
